start=new Date('2022-05-05T00:00:00.000Z').valueOf();
sats=[{"ECCENTRICITY":"0.00015600","CLASSIFICATION_TYPE":"U","TLE_LINE2":"2 44720  53.0563  15.1350 0001560  63.4135 296.7013 15.06407163136944","APOAPSIS":"548.272","BSTAR":"0.00018510000000","OBJECT_NAME":"STARLINK-1014","SEMIMAJOR_AXIS":"6925.327","ELEMENT_SET_NO":"999","RA_OF_ASC_NODE":"15.1350","TIME_SYSTEM":"UTC","REV_AT_EPOCH":"13694","MEAN_ELEMENT_THEORY":"SGP4","OBJECT_TYPE":"PAYLOAD","EPHEMERIS_TYPE":"0","OBJECT_ID":"2019-074H","NORAD_CAT_ID":"44720","INCLINATION":"53.0563","CENTER_NAME":"EARTH","EPOCH":"2022-05-04T09:57:17.789472","TLE_LINE1":"1 44720U 19074H   22124.41478923  .00002477  00000-0  18510-3 0  9995","LAUNCH_DATE":"2019-11-11","MEAN_MOTION_DOT":"0.00002477","MEAN_MOTION_DDOT":"0.0000000000000","MEAN_ANOMALY":"296.7013","MEAN_MOTION":"15.06407163","RCS_SIZE":"LARGE","SITE":"AFETR","PERIAPSIS":"546.111","COUNTRY_CODE":"US","DECAY_DATE":null,"REF_FRAME":"TEME","PERIOD":"95.592","ARG_OF_PERICENTER":"63.4135","GP_ID":"202680164","FILE":"3428698"},{"OBJECT_TYPE":"PAYLOAD","REV_AT_EPOCH":"13700","MEAN_ELEMENT_THEORY":"SGP4","TIME_SYSTEM":"UTC","EPHEMERIS_TYPE":"0","NORAD_CAT_ID":"44721","OBJECT_ID":"2019-074J","TLE_LINE1":"1 44721U 19074J   22124.86816193  .00005897  00000-0  41423-3 0  9998","EPOCH":"2022-05-04T20:50:09.190752","CENTER_NAME":"EARTH","INCLINATION":"53.0542","CLASSIFICATION_TYPE":"U","ECCENTRICITY":"0.00014300","SEMIMAJOR_AXIS":"6925.288","BSTAR":"0.00041423000000","OBJECT_NAME":"STARLINK-1015","APOAPSIS":"548.143","TLE_LINE2":"2 44721  53.0542  13.1126 0001430  68.8793 291.2348 15.06419901137008","ELEMENT_SET_NO":"999","RA_OF_ASC_NODE":"13.1126","COUNTRY_CODE":"US","GP_ID":"202714313","ARG_OF_PERICENTER":"68.8793","REF_FRAME":"TEME","PERIOD":"95.591","DECAY_DATE":null,"FILE":"3429148","MEAN_MOTION":"15.06419901","MEAN_MOTION_DDOT":"0.0000000000000","MEAN_MOTION_DOT":"0.00005897","MEAN_ANOMALY":"291.2348","LAUNCH_DATE":"2019-11-11","SITE":"AFETR","RCS_SIZE":"LARGE","PERIAPSIS":"546.162"},{"APOAPSIS":"548.251","TLE_LINE2":"2 44722  53.0568  13.3908 0001516  75.2427 284.8730 15.06404173137006","SEMIMAJOR_AXIS":"6925.336","OBJECT_NAME":"STARLINK-1016","BSTAR":"0.00020854000000","ECCENTRICITY":"0.00015160","CLASSIFICATION_TYPE":"U","RA_OF_ASC_NODE":"13.3908","ELEMENT_SET_NO":"999","EPHEMERIS_TYPE":"0","MEAN_ELEMENT_THEORY":"SGP4","REV_AT_EPOCH":"13700","TIME_SYSTEM":"UTC","OBJECT_TYPE":"PAYLOAD","INCLINATION":"53.0568","EPOCH":"2022-05-04T19:19:55.244928","TLE_LINE1":"1 44722U 19074K   22124.80550052  .00002826  00000-0  20854-3 0  9996","CENTER_NAME":"EARTH","OBJECT_ID":"2019-074K","NORAD_CAT_ID":"44722","MEAN_ANOMALY":"284.8730","MEAN_MOTION_DDOT":"0.0000000000000","MEAN_MOTION_DOT":"0.00002826","LAUNCH_DATE":"2019-11-11","MEAN_MOTION":"15.06404173","PERIAPSIS":"546.151","SITE":"AFETR","RCS_SIZE":"LARGE","COUNTRY_CODE":"US","FILE":"3429148","DECAY_DATE":null,"GP_ID":"202714060","ARG_OF_PERICENTER":"75.2427","REF_FRAME":"TEME","PERIOD":"95.592"},{"SEMIMAJOR_AXIS":"6925.292","OBJECT_NAME":"STARLINK-1017","BSTAR":"-0.00004390100000","APOAPSIS":"548.337","TLE_LINE2":"2 44723  53.0560  13.3338 0001705  71.5126 288.6048 15.06418559137008","CLASSIFICATION_TYPE":"U","ECCENTRICITY":"0.00017050","RA_OF_ASC_NODE":"13.3338","ELEMENT_SET_NO":"999","EPHEMERIS_TYPE":"0","OBJECT_TYPE":"PAYLOAD","REV_AT_EPOCH":"13700","MEAN_ELEMENT_THEORY":"SGP4","TIME_SYSTEM":"UTC","TLE_LINE1":"1 44723U 19074L   22124.82023533 -.00000936  00000-0 -43901-4 0  9999","EPOCH":"2022-05-04T19:41:08.332512","CENTER_NAME":"EARTH","INCLINATION":"53.0560","NORAD_CAT_ID":"44723","OBJECT_ID":"2019-074L","MEAN_MOTION":"15.06418559","MEAN_MOTION_DDOT":"0.0000000000000","MEAN_MOTION_DOT":"-0.00000936","MEAN_ANOMALY":"288.6048","LAUNCH_DATE":"2019-11-11","PERIAPSIS":"545.976","SITE":"AFETR","RCS_SIZE":"LARGE","COUNTRY_CODE":"US","FILE":"3429148","ARG_OF_PERICENTER":"71.5126","GP_ID":"202713315","REF_FRAME":"TEME","PERIOD":"95.591","DECAY_DATE":null},{"REF_FRAME":"TEME","PERIOD":"95.592","ARG_OF_PERICENTER":"61.4283","GP_ID":"202680664","DECAY_DATE":null,"FILE":"3428698","COUNTRY_CODE":"US","RCS_SIZE":"LARGE","SITE":"AFETR","PERIAPSIS":"545.962","MEAN_MOTION":"15.06395816","LAUNCH_DATE":"2019-11-11","MEAN_ANOMALY":"298.6889","MEAN_MOTION_DDOT":"0.0000000000000","MEAN_MOTION_DOT":"0.00002208","NORAD_CAT_ID":"44724","OBJECT_ID":"2019-074M","CENTER_NAME":"EARTH","EPOCH":"2022-05-04T09:14:50.469504","TLE_LINE1":"1 44724U 19074M   22124.38530636  .00002208  00000-0  16709-3 0  9995","INCLINATION":"53.0573","OBJECT_TYPE":"PAYLOAD","TIME_SYSTEM":"UTC","REV_AT_EPOCH":"13693","MEAN_ELEMENT_THEORY":"SGP4","EPHEMERIS_TYPE":"0","ELEMENT_SET_NO":"999","RA_OF_ASC_NODE":"15.2834","CLASSIFICATION_TYPE":"U","ECCENTRICITY":"0.00018260","OBJECT_NAME":"STARLINK-1019","BSTAR":"0.00016709000000","SEMIMAJOR_AXIS":"6925.361","TLE_LINE2":"2 44724  53.0573  15.2834 0001826  61.4283 298.6889 15.06395816136936","APOAPSIS":"548.491"},{"INCLINATION":"53.0558","TLE_LINE1":"1 44725U 19074N   22124.85525938  .00005856  00000-0  41162-3 0  9990","EPOCH":"2022-05-04T20:31:34.410432","CENTER_NAME":"EARTH","OBJECT_ID":"2019-074N","NORAD_CAT_ID":"44725","EPHEMERIS_TYPE":"0","REV_AT_EPOCH":"13672","MEAN_ELEMENT_THEORY":"SGP4","TIME_SYSTEM":"UTC","OBJECT_TYPE":"PAYLOAD","RA_OF_ASC_NODE":"33.1555","ELEMENT_SET_NO":"999","APOAPSIS":"548.299","TLE_LINE2":"2 44725  53.0558  33.1555 0001609  69.3022 290.8140 15.06409396136726","SEMIMAJOR_AXIS":"6925.320","OBJECT_NAME":"STARLINK-1020","BSTAR":"0.00041162000000","ECCENTRICITY":"0.00016090","CLASSIFICATION_TYPE":"U","FILE":"3429148","DECAY_DATE":null,"ARG_OF_PERICENTER":"69.3022","GP_ID":"202713813","PERIOD":"95.592","REF_FRAME":"TEME","COUNTRY_CODE":"US","PERIAPSIS":"546.070","SITE":"AFETR","RCS_SIZE":"LARGE","MEAN_MOTION_DDOT":"0.0000000000000","MEAN_MOTION_DOT":"0.00005856","MEAN_ANOMALY":"290.8140","LAUNCH_DATE":"2019-11-11","MEAN_MOTION":"15.06409396"},{"PERIAPSIS":"546.171","SITE":"AFETR","RCS_SIZE":"LARGE","MEAN_MOTION":"15.06410189","MEAN_MOTION_DDOT":"0.0000000000000","MEAN_MOTION_DOT":"0.00003760","MEAN_ANOMALY":"288.4285","LAUNCH_DATE":"2019-11-11","FILE":"3429148","ARG_OF_PERICENTER":"71.6863","GP_ID":"202714561","PERIOD":"95.591","REF_FRAME":"TEME","DECAY_DATE":null,"COUNTRY_CODE":"US","RA_OF_ASC_NODE":"13.2084","ELEMENT_SET_NO":"999","SEMIMAJOR_AXIS":"6925.317","BSTAR":"0.00027111000000","OBJECT_NAME":"STARLINK-1021","APOAPSIS":"548.193","TLE_LINE2":"2 44726  53.0542  13.2084 0001460  71.6863 288.4285 15.06410189137007","CLASSIFICATION_TYPE":"U","ECCENTRICITY":"0.00014600","EPOCH":"2022-05-04T20:18:18.122976","TLE_LINE1":"1 44726U 19074P   22124.84604309  .00003760  00000-0  27111-3 0  9990","CENTER_NAME":"EARTH","INCLINATION":"53.0542","NORAD_CAT_ID":"44726","OBJECT_ID":"2019-074P","EPHEMERIS_TYPE":"0","OBJECT_TYPE":"PAYLOAD","MEAN_ELEMENT_THEORY":"SGP4","REV_AT_EPOCH":"13700","TIME_SYSTEM":"UTC"},{"LAUNCH_DATE":"2019-11-11","MEAN_MOTION_DDOT":"0.0000000000000","MEAN_ANOMALY":"302.8456","MEAN_MOTION_DOT":"0.00000265","MEAN_MOTION":"15.06400279","PERIAPSIS":"546.124","RCS_SIZE":"LARGE","SITE":"AFETR","COUNTRY_CODE":"US","FILE":"3428698","DECAY_DATE":null,"REF_FRAME":"TEME","PERIOD":"95.592","ARG_OF_PERICENTER":"57.2685","GP_ID":"202680414","TLE_LINE2":"2 44727  53.0569  56.0272 0001572  57.2685 302.8456 15.06400279136365","APOAPSIS":"548.301","OBJECT_NAME":"STARLINK-1022","BSTAR":"0.00003666300000","SEMIMAJOR_AXIS":"6925.348","ECCENTRICITY":"0.00015720","CLASSIFICATION_TYPE":"U","RA_OF_ASC_NODE":"56.0272","ELEMENT_SET_NO":"999","EPHEMERIS_TYPE":"0","TIME_SYSTEM":"UTC","REV_AT_EPOCH":"13636","MEAN_ELEMENT_THEORY":"SGP4","OBJECT_TYPE":"PAYLOAD","INCLINATION":"53.0569","CENTER_NAME":"EARTH","TLE_LINE1":"1 44727U 19074Q   22124.21848817  .00000265  00000-0  36663-4 0  9996","EPOCH":"2022-05-04T05:14:37.377888","OBJECT_ID":"2019-074Q","NORAD_CAT_ID":"44727"},{"MEAN_MOTION":"15.12120757","LAUNCH_DATE":"2019-11-11","MEAN_MOTION_DDOT":"0.0000000000000","MEAN_MOTION_DOT":"0.00020456","MEAN_ANOMALY":"257.6044","RCS_SIZE":"LARGE","SITE":"AFETR","PERIAPSIS":"528.369","COUNTRY_CODE":"US","REF_FRAME":"TEME","PERIOD":"95.230","ARG_OF_PERICENTER":"102.5168","GP_ID":"202680165","DECAY_DATE":null,"FILE":"3428698","CLASSIFICATION_TYPE":"U","ECCENTRICITY":"0.00019780","OBJECT_NAME":"STARLINK-1024","BSTAR":"0.00118750000000","SEMIMAJOR_AXIS":"6907.871","TLE_LINE2":"2 44729  53.0036  26.9773 0001978 102.5168 257.6044 15.12120757136747","APOAPSIS":"531.102","ELEMENT_SET_NO":"999","RA_OF_ASC_NODE":"26.9773","OBJECT_TYPE":"PAYLOAD","TIME_SYSTEM":"UTC","REV_AT_EPOCH":"13674","MEAN_ELEMENT_THEORY":"SGP4","EPHEMERIS_TYPE":"0","NORAD_CAT_ID":"44729","OBJECT_ID":"2019-074S","CENTER_NAME":"EARTH","EPOCH":"2022-05-04T10:22:31.043136","TLE_LINE1":"1 44729U 19074S   22124.43230374  .00020456  00000-0  11875-2 0  9995","INCLINATION":"53.0036"},{"CLASSIFICATION_TYPE":"U","ECCENTRICITY":"0.00015640","SEMIMAJOR_AXIS":"6925.365","OBJECT_NAME":"STARLINK-1026","BSTAR":"0.00025660000000","APOAPSIS":"548.313","TLE_LINE2":"2 44731  53.0579  15.2346 0001564  70.0580 290.0577 15.06394557136934","ELEMENT_SET_NO":"999","RA_OF_ASC_NODE":"15.2346","OBJECT_TYPE":"PAYLOAD","REV_AT_EPOCH":"13693","MEAN_ELEMENT_THEORY":"SGP4","TIME_SYSTEM":"UTC","EPHEMERIS_TYPE":"0","NORAD_CAT_ID":"44731","OBJECT_ID":"2019-074U","TLE_LINE1":"1 44731U 19074U   22124.39268527  .00003542  00000-0  25660-3 0  9999","EPOCH":"2022-05-04T09:25:28.007328","CENTER_NAME":"EARTH","INCLINATION":"53.0579","MEAN_MOTION":"15.06394557","MEAN_ANOMALY":"290.0577","MEAN_MOTION_DDOT":"0.0000000000000","MEAN_MOTION_DOT":"0.00003542","LAUNCH_DATE":"2019-11-11","SITE":"AFETR","RCS_SIZE":"LARGE","PERIAPSIS":"546.147","COUNTRY_CODE":"US","ARG_OF_PERICENTER":"70.0580","GP_ID":"202678913","REF_FRAME":"TEME","PERIOD":"95.592","DECAY_DATE":null,"FILE":"3428698"}];
